{
  "type": "FeatureCollection",
  "features": [
    {
      "type": "Feature",
      "properties": {
        "norad_id": 43208,
        "name": "BEIDOU-3 M3 (C21)",
        "group": "beidou",
        "lat": 55.698954517786525,
        "lon": 145.43731928520307,
        "alt_km": 21531.55981851502,
        "timestamp": "2025-12-07T16:44:04.176533+00:00",
        "meta_object_name": "BEIDOU-3 M3 (C21)",
        "meta_object_id": "2018-018B",
        "meta_epoch": "2025-12-03T06:41:57.693408",
        "meta_mean_motion": 1.86230862,
        "meta_eccentricity": 0.0006282,
        "meta_inclination": 56.4772,
        "meta_ra_of_asc_node": 69.6218,
        "meta_arg_of_pericenter": 317.5873,
        "meta_mean_anomaly": 42.3668,
        "meta_ephemeris_type": 0,
        "meta_classification_type": "U",
        "meta_norad_cat_id": 43208,
        "meta_element_set_no": 999,
        "meta_rev_at_epoch": 5309,
        "meta_bstar": 0,
        "meta_mean_motion_dot": -4.9e-07,
        "meta_mean_motion_ddot": 0,
        "tle_line1": "1 43208U 18018B   25337.27913997 -.00000049  00000+0  00000+0 0  9994",
        "tle_line2": "2 43208  56.4772  69.6218 0006282 317.5873  42.3668  1.86230862 53096"
      },
      "geometry": {
        "type": "Point",
        "coordinates": [
          145.43731928520307,
          55.698954517786525
        ]
      }
    },
    {
      "type": "Feature",
      "properties": {
        "norad_id": 43245,
        "name": "BEIDOU-3 M9 (C29)",
        "group": "beidou",
        "lat": -46.28929538946037,
        "lon": -101.93970751861717,
        "alt_km": 21529.31133010353,
        "timestamp": "2025-12-07T16:44:04.176545+00:00",
        "meta_object_name": "BEIDOU-3 M9 (C29)",
        "meta_object_id": "2018-029A",
        "meta_epoch": "2025-12-06T04:19:14.773440",
        "meta_mean_motion": 1.86227852,
        "meta_eccentricity": 0.00016531,
        "meta_inclination": 54.3717,
        "meta_ra_of_asc_node": 306.6963,
        "meta_arg_of_pericenter": 276.0283,
        "meta_mean_anomaly": 83.9359,
        "meta_ephemeris_type": 0,
        "meta_classification_type": "U",
        "meta_norad_cat_id": 43245,
        "meta_element_set_no": 999,
        "meta_rev_at_epoch": 5230,
        "meta_bstar": 0,
        "meta_mean_motion_dot": -6.9e-07,
        "meta_mean_motion_ddot": 0,
        "tle_line1": "1 43245U 18029A   25340.18003210 -.00000069  00000+0  00000+0 0  9991",
        "tle_line2": "2 43245  54.3717 306.6963 0001653 276.0283  83.9359  1.86227852 52301"
      },
      "geometry": {
        "type": "Point",
        "coordinates": [
          -101.93970751861717,
          -46.28929538946037
        ]
      }
    },
    {
      "type": "Feature",
      "properties": {
        "norad_id": 43246,
        "name": "BEIDOU-3 M10 (C30)",
        "group": "beidou",
        "lat": -15.667951148922047,
        "lon": -64.94823590670462,
        "alt_km": 21519.850204905426,
        "timestamp": "2025-12-07T16:44:04.176556+00:00",
        "meta_object_name": "BEIDOU-3 M10 (C30)",
        "meta_object_id": "2018-029B",
        "meta_epoch": "2025-12-06T15:39:16.557408",
        "meta_mean_motion": 1.86228888,
        "meta_eccentricity": 0.00040513,
        "meta_inclination": 54.3688,
        "meta_ra_of_asc_node": 306.7073,
        "meta_arg_of_pericenter": 0.3852,
        "meta_mean_anomaly": 359.5988,
        "meta_ephemeris_type": 0,
        "meta_classification_type": "U",
        "meta_norad_cat_id": 43246,
        "meta_element_set_no": 999,
        "meta_rev_at_epoch": 5229,
        "meta_bstar": 0,
        "meta_mean_motion_dot": -6.9e-07,
        "meta_mean_motion_ddot": 0,
        "tle_line1": "1 43246U 18029B   25340.65227497 -.00000069  00000+0  00000+0 0  9999",
        "tle_line2": "2 43246  54.3688 306.7073 0004051   0.3852 359.5988  1.86228888 52295"
      },
      "geometry": {
        "type": "Point",
        "coordinates": [
          -64.94823590670462,
          -15.667951148922047
        ]
      }
    },
    {
      "type": "Feature",
      "properties": {
        "norad_id": 43539,
        "name": "BEIDOU-2 IGSO-7 (C16)",
        "group": "beidou",
        "lat": -54.81550719183199,
        "lon": 83.21742218351473,
        "alt_km": 35494.34377666335,
        "timestamp": "2025-12-07T16:44:04.176568+00:00",
        "meta_object_name": "BEIDOU-2 IGSO-7 (C16)",
        "meta_object_id": "2018-057A",
        "meta_epoch": "2025-12-06T10:45:43.762752",
        "meta_mean_motion": 1.00258736,
        "meta_eccentricity": 0.00924876,
        "meta_inclination": 55.1738,
        "meta_ra_of_asc_node": 164.7265,
        "meta_arg_of_pericenter": 235.2008,
        "meta_mean_anomaly": 308.2533,
        "meta_ephemeris_type": 0,
        "meta_classification_type": "U",
        "meta_norad_cat_id": 43539,
        "meta_element_set_no": 999,
        "meta_rev_at_epoch": 2719,
        "meta_bstar": 0,
        "meta_mean_motion_dot": -5.8e-07,
        "meta_mean_motion_ddot": 0,
        "tle_line1": "1 43539U 18057A   25340.44842318 -.00000058  00000+0  00000+0 0  9995",
        "tle_line2": "2 43539  55.1738 164.7265 0092487 235.2008 308.2533  1.00258736 27191"
      },
      "geometry": {
        "type": "Point",
        "coordinates": [
          83.21742218351473,
          -54.81550719183199
        ]
      }
    },
    {
      "type": "Feature",
      "properties": {
        "norad_id": 43581,
        "name": "BEIDOU-3 M5 (C23)",
        "group": "beidou",
        "lat": -8.070942229501531,
        "lon": 14.722551590554877,
        "alt_km": 21535.228367523825,
        "timestamp": "2025-12-07T16:44:04.176580+00:00",
        "meta_object_name": "BEIDOU-3 M5 (C23)",
        "meta_object_id": "2018-062A",
        "meta_epoch": "2025-12-05T19:16:28.653888",
        "meta_mean_motion": 1.862286,
        "meta_eccentricity": 0.00021216,
        "meta_inclination": 54.0891,
        "meta_ra_of_asc_node": 188.8794,
        "meta_arg_of_pericenter": 352.6439,
        "meta_mean_anomaly": 7.436,
        "meta_ephemeris_type": 0,
        "meta_classification_type": "U",
        "meta_norad_cat_id": 43581,
        "meta_element_set_no": 999,
        "meta_rev_at_epoch": 5003,
        "meta_bstar": 0,
        "meta_mean_motion_dot": 8.2e-07,
        "meta_mean_motion_ddot": 0,
        "tle_line1": "1 43581U 18062A   25339.80310942  .00000082  00000+0  00000+0 0  9995",
        "tle_line2": "2 43581  54.0891 188.8794 0002121 352.6439   7.4360  1.86228600 50034"
      },
      "geometry": {
        "type": "Point",
        "coordinates": [
          14.722551590554877,
          -8.070942229501531
        ]
      }
    },
    {
      "type": "Feature",
      "properties": {
        "norad_id": 43582,
        "name": "BEIDOU-3 M6 (C24)",
        "group": "beidou",
        "lat": -52.440148798483506,
        "lon": 118.31281119003951,
        "alt_km": 21546.02200592444,
        "timestamp": "2025-12-07T16:44:04.176591+00:00",
        "meta_object_name": "BEIDOU-3 M6 (C24)",
        "meta_object_id": "2018-062B",
        "meta_epoch": "2025-12-04T14:12:56.874816",
        "meta_mean_motion": 1.862296,
        "meta_eccentricity": 0.00077069,
        "meta_inclination": 54.0887,
        "meta_ra_of_asc_node": 188.9098,
        "meta_arg_of_pericenter": 46.0149,
        "meta_mean_anomaly": 314.1395,
        "meta_ephemeris_type": 0,
        "meta_classification_type": "U",
        "meta_norad_cat_id": 43582,
        "meta_element_set_no": 999,
        "meta_rev_at_epoch": 5001,
        "meta_bstar": 0,
        "meta_mean_motion_dot": 1.02e-06,
        "meta_mean_motion_ddot": 0,
        "tle_line1": "1 43582U 18062B   25338.59232494  .00000102  00000+0  00000+0 0  9999",
        "tle_line2": "2 43582  54.0887 188.9098 0007706  46.0149 314.1395  1.86229600 50019"
      },
      "geometry": {
        "type": "Point",
        "coordinates": [
          118.31281119003951,
          -52.440148798483506
        ]
      }
    },
    {
      "type": "Feature",
      "properties": {
        "norad_id": 43602,
        "name": "BEIDOU-3 M12 (C26)",
        "group": "beidou",
        "lat": -28.885644344928195,
        "lon": 164.05463183361613,
        "alt_km": 21526.430479608487,
        "timestamp": "2025-12-07T16:44:04.176602+00:00",
        "meta_object_name": "BEIDOU-3 M12 (C26)",
        "meta_object_id": "2018-067A",
        "meta_epoch": "2025-12-05T01:36:30.437280",
        "meta_mean_motion": 1.86227634,
        "meta_eccentricity": 0.0009145,
        "meta_inclination": 54.1831,
        "meta_ra_of_asc_node": 187.6237,
        "meta_arg_of_pericenter": 40.6372,
        "meta_mean_anomaly": 319.5174,
        "meta_ephemeris_type": 0,
        "meta_classification_type": "U",
        "meta_norad_cat_id": 43602,
        "meta_element_set_no": 999,
        "meta_rev_at_epoch": 4950,
        "meta_bstar": 0,
        "meta_mean_motion_dot": 9.5e-07,
        "meta_mean_motion_ddot": 0,
        "tle_line1": "1 43602U 18067A   25339.06701895  .00000095  00000+0  00000+0 0  9997",
        "tle_line2": "2 43602  54.1831 187.6237 0009145  40.6372 319.5174  1.86227634 49501"
      },
      "geometry": {
        "type": "Point",
        "coordinates": [
          164.05463183361613,
          -28.885644344928195
        ]
      }
    }
  ]
}